ATLAS CENTAUR 2         
1 00694U 63047A   25355.84634558  .00001808  00000+0  21095-3 0  9998
2 00694  30.3530 270.5905 0548769 114.3958 251.4899 14.11798000120612
THOR AGENA D R/B        
1 00733U 64002A   25355.72353538  .00000178  00000+0  80700-4 0  9995
2 00733  99.1218 359.8281 0033713 124.5357 235.9016 14.33964628227121
SL-3 R/B                
1 00877U 64053B   25355.74312080  .00000125  00000+0  48690-4 0  9993
2 00877  65.0749 199.7416 0074608 317.3935  42.1391 14.61282313255405
SL-8 R/B                
1 02802U 67045B   25355.72040384  .00000363  00000+0  10817-3 0  9993
2 02802  74.0104 133.6931 0063842 160.8205 199.5379 14.45545889 77753
SL-8 R/B                
1 03230U 68040B   25355.76203194  .00002894  00000+0  21908-3 0  9993
2 03230  74.0315 112.8450 0025947 312.8615  47.0394 15.02583906 78308
OAO 2                   
1 03597U 68110A   25355.68764168  .00000203  00000+0  59841-4 0  9991
2 03597  34.9949 340.7082 0006064 289.3522  70.6513 14.47249268  7797
ISIS 1                  
1 03669U 69009A   25355.73413103  .00000184  00000+0  13336-3 0  9991
2 03669  88.4489 163.8123 1706971 246.5188  94.7759 11.30358175339725
SERT 2                  
1 04327U 70009A   25355.85596475  .00000025  00000+0  91235-4 0  9991
2 04327  99.2665 298.2482 0005145  13.6924   6.4486 13.58718987769322
SL-3 R/B                
1 05118U 71028B   25355.81500176  .00031095  00000+0  45959-3 0  9993
2 05118  81.2376 147.7520 0019177 207.9903 152.0317 15.54943235976546
ASTEX 1                 
1 05560U 71089A   25355.81023383  .00000474  00000+0  12097-3 0  9995
2 05560  92.7147 126.5541 0015220 356.1968   3.9120 14.50652582851018
SL-8 R/B                
1 05730U 71119B   25355.32617334  .00010640  00000+0  55386-3 0  9993
2 05730  73.8890 321.9879 0558778 304.5298  50.4292 14.35929635644230
OAO 3 (COPERNICUS)      
1 06153U 72065A   25355.79305728  .00000308  00000+0  67688-4 0  9995
2 06153  35.0070  21.0941 0007164 245.1980 281.2610 14.59913649834800
